OBJECT_NAME,OBJECT_ID,EPOCH,MEAN_MOTION,ECCENTRICITY,INCLINATION,RA_OF_ASC_NODE,ARG_OF_PERICENTER,MEAN_ANOMALY,EPHEMERIS_TYPE,CLASSIFICATION_TYPE,NORAD_CAT_ID,ELEMENT_SET_NO,REV_AT_EPOCH,BSTAR,MEAN_MOTION_DOT,MEAN_MOTION_DDOT
STARLINK-11347 [DTC],2025-035C,2026-07-04T20:23:15.397728,15.70935422,.00011039,43.0003,29.4479,168.7233,191.3659,0,U,63054,999,7964,.21397983E-2,.284879E-2,0
STARLINK-11558 [DTC],2025-035D,2026-07-04T20:38:21.903072,15.71138032,.00019884,43.0014,28.6391,241.4651,118.6017,0,U,63055,999,7954,.23388526E-2,.315245E-2,0
STARLINK-11392 [DTC],2025-035E,2026-07-04T20:07:57.957600,15.70942290,.00013248,43.0005,29.3625,143.9956,216.1001,0,U,63056,999,7964,.21970715E-2,.292885E-2,0
STARLINK-11406 [DTC],2025-035F,2026-07-04T13:38:47.915232,15.71040300,.0001166,42.9976,30.7661,222.7007,137.3770,0,U,63057,999,7948,.23579457E-2,.316576E-2,0
STARLINK-11418 [DTC],2025-035G,2026-07-04T22:02:27.086784,15.71068813,.00045159,43.0023,29.1068,265.2366,94.7986,0,U,63058,999,7953,.25886826E-2,.349473E-2,0
STARLINK-11509 [DTC],2025-035H,2026-07-04T20:15:36.637056,15.70949331,.00012084,43.0015,29.4033,157.0654,203.0268,0,U,63059,999,7952,.23853738E-2,.31914E-2,0
STARLINK-11403 [DTC],2025-035J,2026-07-04T13:54:05.600736,15.71020380,.00020107,42.9993,30.8506,273.9565,86.1073,0,U,63060,999,7960,.22376226E-2,.29952E-2,0
STARLINK-11409 [DTC],2025-035K,2026-07-04T21:40:49.771776,15.71033037,.00039737,43.0013,28.9828,252.6080,107.4353,0,U,63061,999,7965,.200045E-2,.266851E-2,0
STARLINK-11412 [DTC],2025-035L,2026-07-04T15:17:59.862624,15.71138955,.00037536,43.0004,30.4213,267.9292,92.1146,0,U,63062,999,7961,.29616866E-2,.403681E-2,0
STARLINK-11399 [DTC],2025-035M,2026-07-04T20:53:39.357024,15.70898311,.00077345,42.9999,28.7170,285.3825,74.6188,0,U,63063,999,7965,.18504127E-2,.245009E-2,0
STARLINK-11408 [DTC],2025-035N,2026-07-04T20:46:00.717312,15.70911160,.00035963,43.0007,28.6752,276.5985,83.4473,0,U,63064,999,7965,.21348111E-2,.283921E-2,0
STARLINK-33635,2025-035P,2026-07-04T18:06:54.580896,15.27595422,.00018125,42.9980,205.9291,283.6752,76.3898,0,U,63065,999,7763,.84391817E-3,.23045E-3,0
STARLINK-33622,2025-035Q,2026-07-04T08:16:02.237376,15.27601773,.0001513,42.9990,208.0037,275.3090,84.7589,0,U,63066,999,7757,.12849082E-2,.35289E-3,0
STARLINK-33628,2025-035R,2026-07-04T18:32:48.611904,15.27610306,.00012123,43.0006,206.0663,266.8721,93.1992,0,U,63067,999,7763,.103636E-2,.28392E-3,0
STARLINK-33627,2025-035S,2026-07-04T18:21:40.739904,15.27612381,.00008608,42.9995,206.0042,273.8172,86.2581,0,U,63068,999,7762,.88743091E-3,.24262E-3,0
STARLINK-33620,2025-035T,2026-07-04T18:16:07.698144,15.27620908,.00010919,42.9993,205.9748,273.9324,86.1403,0,U,63069,999,7762,.12067573E-2,.33136E-3,0
STARLINK-33604,2025-035U,2026-07-04T18:53:08.117664,15.27613100,.00009132,42.9971,206.1811,287.7408,72.3344,0,U,63070,999,7762,.89313167E-3,.24421E-3,0
STARLINK-33624,2025-035V,2026-07-04T18:12:46.597824,15.29373510,.00012152,43.0014,202.4947,333.1757,26.9032,0,U,63071,999,7756,.24070531E-2,.70383E-3,0
STARLINK-33623,2025-035W,2026-07-04T18:43:52.910400,15.27628899,.00019323,43.0010,206.1281,279.7637,80.2997,0,U,63072,999,7763,.15026219E-2,.41382E-3,0
STARLINK-33586,2025-035X,2026-07-04T17:53:29.073696,15.27601344,.00018202,43.0006,198.9250,267.5730,92.4914,0,U,63073,999,7771,.10135775E-2,.27753E-3,0
STARLINK-33605,2025-035Y,2026-07-04T17:50:13.569504,15.27616626,.00012821,42.9980,205.8347,269.3534,90.7171,0,U,63074,999,7762,.13834359E-2,.38046E-3,0
ZHONGXING-10R,2025-036A,2026-07-04T22:12:46.016640,1.00269677,.000417,0.0515,232.7310,276.2354,217.6818,0,U,63075,999,513,0,-.339E-5,0
STARLINK-32839,2025-037A,2026-07-04T14:40:36.291360,14.98347877,.00026822,70.0008,59.7445,269.2924,90.7927,0,U,63077,999,7610,.44573214E-3,.5232E-4,0
STARLINK-32821,2025-037B,2026-07-04T01:51:17.845632,14.98339261,.00027206,70.0011,61.0865,271.7741,88.3106,0,U,63078,999,7601,.50792975E-3,.5974E-4,0
STARLINK-32817,2025-037C,2026-07-04T15:34:25.609728,14.98348358,.00027592,70.0001,59.4642,266.1141,93.9702,0,U,63079,999,7611,.87492724E-3,.10367E-3,0
STARLINK-32906,2025-037D,2026-07-04T21:29:13.004160,14.98351263,.00020741,70.0006,59.1219,260.3149,99.7776,0,U,63080,999,7615,.13395971E-2,.15935E-3,0
STARLINK-32895,2025-037E,2026-07-04T14:58:23.950848,14.98347816,.00028319,70.0009,59.7857,267.9593,92.1242,0,U,63081,999,7597,.62766718E-3,.7408E-4,0
STARLINK-32933,2025-037F,2026-07-04T09:34:10.329024,14.98339273,.00031649,70.0011,60.1967,269.2333,90.8463,0,U,63082,999,7602,.78737794E-3,.9317E-4,0
STARLINK-32932,2025-037G,2026-07-04T09:39:56.793888,14.98342172,.00027022,70.0005,60.2173,266.0493,94.0358,0,U,63083,999,7594,.42884524E-3,.5029E-4,0
STARLINK-32908,2025-037H,2026-07-04T09:27:57.384288,14.98331656,.00030132,70.0009,60.1844,266.2569,93.8245,0,U,63084,999,7594,.10730089E-2,.12734E-3,0
