STARLINK-11347 [DTC]    
1 63054U 25035C   26185.84948377  .00284879  00000+0  21398-2 0  9997
2 63054  43.0003  29.4479 0001103 168.7233 191.3659 15.70935422 79648
STARLINK-11558 [DTC]    
1 63055U 25035D   26185.85997573  .00315245  00000+0  23389-2 0  9995
2 63055  43.0014  28.6391 0001988 241.4651 118.6017 15.71138032 79541
STARLINK-11392 [DTC]    
1 63056U 25035E   26185.83886525  .00292885  00000+0  21971-2 0  9997
2 63056  43.0005  29.3625 0001324 143.9956 216.1001 15.70942290 79644
STARLINK-11406 [DTC]    
1 63057U 25035F   26185.56861013  .00316576  00000+0  23579-2 0  9993
2 63057  42.9976  30.7661 0001166 222.7007 137.3770 15.71040300 79484
STARLINK-11418 [DTC]    
1 63058U 25035G   26185.91836906  .00349473  00000+0  25887-2 0  9992
2 63058  43.0023  29.1068 0004515 265.2366  94.7986 15.71068813 79534
STARLINK-11509 [DTC]    
1 63059U 25035H   26185.84417404  .00319140  00000+0  23854-2 0  9993
2 63059  43.0015  29.4033 0001208 157.0654 203.0268 15.70949331 79524
STARLINK-11403 [DTC]    
1 63060U 25035J   26185.57923149  .00299520  00000+0  22376-2 0  9990
2 63060  42.9993  30.8506 0002010 273.9565  86.1073 15.71020380 79609
STARLINK-11409 [DTC]    
1 63061U 25035K   26185.90335384  .00266851  00000+0  20005-2 0  9994
2 63061  43.0013  28.9828 0003973 252.6080 107.4353 15.71033037 79651
STARLINK-11412 [DTC]    
1 63062U 25035L   26185.63749841  .00403681  00000+0  29617-2 0  9994
2 63062  43.0004  30.4213 0003753 267.9292  92.1146 15.71138955 79619
STARLINK-11399 [DTC]    
1 63063U 25035M   26185.87059441  .00245009  00000+0  18504-2 0  9992
2 63063  42.9999  28.7170 0007734 285.3825  74.6188 15.70898311 79655
STARLINK-11408 [DTC]    
1 63064U 25035N   26185.86528608  .00283921  00000+0  21348-2 0  9993
2 63064  43.0007  28.6752 0003596 276.5985  83.4473 15.70911160 79657
STARLINK-33635          
1 63065U 25035P   26185.75479839  .00023045  00000+0  84392-3 0  9991
2 63065  42.9980 205.9291 0001812 283.6752  76.3898 15.27595422 77633
STARLINK-33622          
1 63066U 25035Q   26185.34447034  .00035289  00000+0  12849-2 0  9999
2 63066  42.9990 208.0037 0001513 275.3090  84.7589 15.27601773 77578
STARLINK-33628          
1 63067U 25035R   26185.77278486  .00028392  00000+0  10364-2 0  9997
2 63067  43.0006 206.0663 0001212 266.8721  93.1992 15.27610306 77635
STARLINK-33627          
1 63068U 25035S   26185.76505486  .00024262  00000+0  88743-3 0  9999
2 63068  42.9995 206.0042 0000860 273.8172  86.2581 15.27612381 77629
STARLINK-33620          
1 63069U 25035T   26185.76120021  .00033136  00000+0  12068-2 0  9994
2 63069  42.9993 205.9748 0001091 273.9324  86.1403 15.27620908 77622
STARLINK-33604          
1 63070U 25035U   26185.78689951  .00024421  00000+0  89313-3 0  9995
2 63070  42.9971 206.1811 0000913 287.7408  72.3344 15.27613100 77629
STARLINK-33624          
1 63071U 25035V   26185.75887266  .00070383  00000+0  24071-2 0  9999
2 63071  43.0014 202.4947 0001215 333.1757  26.9032 15.29373510 77560
STARLINK-33623          
1 63072U 25035W   26185.78047350  .00041382  00000+0  15026-2 0  9992
2 63072  43.0010 206.1281 0001932 279.7637  80.2997 15.27628899 77639
STARLINK-33586          
1 63073U 25035X   26185.74547539  .00027753  00000+0  10136-2 0  9996
2 63073  43.0006 198.9250 0001820 267.5730  92.4914 15.27601344 77713
STARLINK-33605          
1 63074U 25035Y   26185.74321261  .00038046  00000+0  13834-2 0  9994
2 63074  42.9980 205.8347 0001282 269.3534  90.7171 15.27616626 77627
ZHONGXING-10R           
1 63075U 25036A   26185.92553260 -.00000339  00000+0  00000+0 0  9995
2 63075   0.0515 232.7310 0004170 276.2354 217.6818  1.00269677  5133
STARLINK-32839          
1 63077U 25037A   26185.61153115  .00005232  00000+0  44573-3 0  9992
2 63077  70.0008  59.7445 0002682 269.2924  90.7927 14.98347877 76102
STARLINK-32821          
1 63078U 25037B   26185.07728988  .00005974  00000+0  50793-3 0  9993
2 63078  70.0011  61.0865 0002720 271.7741  88.3106 14.98339261 76017
STARLINK-32817          
1 63079U 25037C   26185.64890752  .00010367  00000+0  87493-3 0  9995
2 63079  70.0001  59.4642 0002759 266.1141  93.9702 14.98348358 76117
STARLINK-32906          
1 63080U 25037D   26185.89528940  .00015935  00000+0  13396-2 0  9997
2 63080  70.0006  59.1219 0002074 260.3149  99.7776 14.98351263 76153
STARLINK-32895          
1 63081U 25037E   26185.62388832  .00007408  00000+0  62767-3 0  9996
2 63081  70.0009  59.7857 0002831 267.9593  92.1242 14.98347816 75971
STARLINK-32933          
1 63082U 25037F   26185.39873066  .00009317  00000+0  78738-3 0  9995
2 63082  70.0011  60.1967 0003164 269.2333  90.8463 14.98339273 76025
STARLINK-32932          
1 63083U 25037G   26185.40274067  .00005029  00000+0  42885-3 0  9994
2 63083  70.0005  60.2173 0002702 266.0493  94.0358 14.98342172 75949
STARLINK-32908          
1 63084U 25037H   26185.39441417  .00012734  00000+0  10730-2 0  9992
2 63084  70.0009  60.1844 0003013 266.2569  93.8245 14.98331656 75947
